1 45052U 20006J   22365.48074525  .00002124  00000-0  16146-3 0  9997
2 45052  53.0560 112.9492 0001339  70.7079 289.4055 15.06394552160988
1 45052U 20006J   22365.67977827  .00002730  00000-0  20205-3 0  9999
2 45052  53.0556 112.0566 0001100  78.6096 281.5016 15.06404173161014
1 45052U 20006J   23001.47594315  .00001045  00000-0  89029-4 0  9990
2 45052  53.0549 108.4812 0001428  71.4057 288.7087 15.06402249161132
1 45052U 20006J   23001.67499326 -.00000698  00000-0 -27999-4 0  9991
2 45052  53.0551 107.5922 0001807  51.5676 308.5475 15.06388677161167
1 45052U 20006J   23002.53750211  .00001051  00000-0  89477-4 0  9991
2 45052  53.0549 103.7178 0001465  68.6640 291.4505 15.06395949161293
1 45052U 20006J   23003.53270793  .00001329  00000-0  10811-3 0  9997
2 45052  53.0549  99.2499 0001650  68.8764 291.2401 15.06394295161446
1 45052U 20006J   23004.46156082  .00004428  00000-0  31594-3 0  9998
2 45052  53.0553  95.0803 0001528  65.4723 294.6425 15.06406565161588
1 45052U 20006J   23004.52790712  .00003525  00000-0  25538-3 0  9997
2 45052  53.0555  94.7822 0001521  64.8265 295.2882 15.06406334161593
1 45052U 20006J   23005.52309752  .00004597  00000-0  32712-3 0  9990
2 45052  53.0557  90.3144 0001449  57.2516 302.8613 15.06418763161741
1 45052U 20006J   23006.58465737 -.00011692  00000-0 -76791-3 0  9994
2 45052  53.0556  85.5497 0001673  62.5339 297.5820 15.06371955161907
1 45052U 20006J   23007.18177904  .00004017  00000-0  28842-3 0  9992
2 45052  53.0552  82.8680 0001610  57.6097 302.5048 15.06396837161998
1 45052U 20006J   23007.57986879  .00012733  00000-0  87231-3 0  9995
2 45052  53.0556  81.0855 0002014  48.3197 311.7964 15.06392489162050
1 45052U 20006J   23008.44238169  .00004945  00000-0  35069-3 0  9992
2 45052  53.0559  77.2137 0002025  61.7206 298.3987 15.06394139162188
1 45052U 20006J   23008.90680987  .00004909  00000-0  34822-3 0  9998
2 45052  53.0549  75.1255 0001661  54.2576 305.8567 15.06398086162258
1 45052U 20006J   23009.43757715  .00006213  00000-0  43549-3 0  9997
2 45052  53.0555  72.7429 0001485  49.5323 310.5795 15.06412253162330
1 45052U 20006J   23009.90200295  .00005629  00000-0  39638-3 0  9999
2 45052  53.0548  70.6566 0001384  50.2572 309.8539 15.06412902162400
1 45052U 20006J   23010.43278081  .00000933  00000-0  81517-4 0  9994
2 45052  53.0554  68.2749 0001665  47.1653 312.9476 15.06401703162480
1 45052U 20006J   23011.49431431  .00024279  00000-0  16412-2 0  9990
2 45052  53.0556  63.5092 0001926  48.5860 311.5294 15.06446154162983
1 45052U 20006J   23011.82605320 -.00000649  00000-0 -24665-4 0  9995
2 45052  53.0549  62.0211 0001941  60.1094 300.0088 15.06406124162693
1 45052U 20006J   23012.82127951  .00018004  00000-0  12253-2 0  9995
2 45052  53.0548  57.5532 0001721  66.2262 293.8907 15.06374842162844
1 45052U 20006J   23013.48475250  .00019665  00000-0  13354-2 0  9993
2 45052  53.0549  54.5748 0001776  68.5193 291.5985 15.06400455162941
1 45052U 20006J   23013.81648900  .00013400  00000-0  91678-3 0  9991
2 45052  53.0551  53.0852 0001847  74.2304 285.8888 15.06398367162992
1 45052U 20006J   23015.34247003  .00030115  00000-0  20319-2 0  9995
2 45052  53.0554  46.2355 0001855  89.5121 270.6081 15.06402268163222
1 45052U 20006J   23015.80689613  .00025485  00000-0  17229-2 0  9993
2 45052  53.0555  44.1506 0001437  91.1400 268.9754 15.06415005163290
1 45052U 20006J   23016.47035669  .00017411  00000-0  11839-2 0  9994
2 45052  53.0557  41.1711 0001875  93.7898 266.3305 15.06429965163397
1 45052U 20006J   23017.46558371  .00000953  00000-0  82967-4 0  9999
2 45052  53.0584  36.7048 0001883  75.5949 284.5249 15.06371274163549
1 45052U 20006J   23018.32809264  .00040831  00000-0  27417-2 0  9991
2 45052  53.0566  32.8338 0001915  74.2570 285.8630 15.06433373163671
1 45052U 20006J   23018.72616651  .00028020  00000-0  18905-2 0  9999
2 45052  53.0556  31.0461 0001596  63.8558 296.2595 15.06439902163730
1 45052U 20006J   23019.38962497  .00029587  00000-0  19947-2 0  9990
2 45052  53.0562  28.0677 0001808  80.1666 279.9527 15.06439478163832
1 45052U 20006J   23020.31848486  .00023468  00000-0  15891-2 0  9992
2 45052  53.0559  23.8984 0001809  98.9762 261.1432 15.06400645163974
1 45052U 20006J   23025.29450630  .00004032  00000-0  28937-3 0  9996
2 45052  53.0571   1.5604 0001759  90.7919 269.3272 15.06406075164727
1 45052U 20006J   23025.62624060  .00004657  00000-0  33132-3 0  9999
2 45052  53.0573   0.0722 0001688  92.6167 267.5015 15.06404691164773
1 45052U 20006J   23026.35605859  .00003171  00000-0  23170-3 0  9996
2 45052  53.0581 356.7937 0002057  86.0022 274.1202 15.06401748164883
1 45052U 20006J   23027.28491566  .00002922  00000-0  21497-3 0  9990
2 45052  53.0577 352.6230 0002037  81.8240 278.2980 15.06402063165028
1 45052U 20006J   23028.28011749  .00001399  00000-0  11277-3 0  9994
2 45052  53.0570 348.1560 0001712  99.2584 260.8598 15.06401919165177
1 45052U 20006J   23028.87724156  .00001498  00000-0  11945-3 0  9994
2 45052  53.0563 345.4748 0001796 113.7631 246.3546 15.06397720165260
1 45052U 20006J   23029.87244491  .00000269  00000-0  36982-4 0  9998
2 45052  53.0562 341.0096 0001627 102.3685 257.7486 15.06396849165410
1 45052U 20006J   23030.27052482  .00000595  00000-0  58865-4 0  9997
2 45052  53.0565 339.2217 0001544 102.7458 257.3704 15.06399046165474
1 45052U 20006J   23030.86764992 -.00000382  00000-0 -67641-5 0  9997
2 45052  53.0568 336.5409 0001667 104.9774 255.1400 15.06397375165563
1 45052U 20006J   23031.26572340  .00001042  00000-0  88845-4 0  9996
2 45052  53.0570 334.7553 0001489  93.7495 266.3664 15.06406627165627
1 45052U 20006J   23031.86285047  .00001362  00000-0  11031-3 0  9994
2 45052  53.0567 332.0749 0001484  92.1799 267.9360 15.06397229165713
